CCSDS_OMM_VERS = 2.0
CREATION_DATE  = 
ORIGINATOR     = 

OBJECT_NAME    = ISS (ZARYA)
OBJECT_ID      = 1998-067A
CENTER_NAME    = EARTH
REF_FRAME      = TEME
TIME_SYSTEM    = UTC
MEAN_ELEMENT_THEORY = SGP/SGP4

EPOCH          = 2026-02-21T10:37:16.613760
MEAN_MOTION    = 15.48182148
ECCENTRICITY   = .0008525
INCLINATION    = 51.6322
RA_OF_ASC_NODE = 152.6650
ARG_OF_PERICENTER = 118.7039
MEAN_ANOMALY   = 241.4807

EPHEMERIS_TYPE = 0
CLASSIFICATION_TYPE = U
NORAD_CAT_ID   = 25544
ELEMENT_SET_NO = 999
REV_AT_EPOCH   = 55381
BSTAR          = .20939E-3
MEAN_MOTION_DOT = .10789E-3
MEAN_MOTION_DDOT = 0

CCSDS_OMM_VERS = 2.0
CREATION_DATE  = 
ORIGINATOR     = 

OBJECT_NAME    = CSS (TIANHE)
OBJECT_ID      = 2021-035A
CENTER_NAME    = EARTH
REF_FRAME      = TEME
TIME_SYSTEM    = UTC
MEAN_ELEMENT_THEORY = SGP/SGP4

EPOCH          = 2026-02-21T09:26:50.786304
MEAN_MOTION    = 15.59973204
ECCENTRICITY   = .0004925
INCLINATION    = 41.4672
RA_OF_ASC_NODE = 307.2629
ARG_OF_PERICENTER = 163.0648
MEAN_ANOMALY   = 197.0356

EPHEMERIS_TYPE = 0
CLASSIFICATION_TYPE = U
NORAD_CAT_ID   = 48274
ELEMENT_SET_NO = 999
REV_AT_EPOCH   = 27506
BSTAR          = .33751E-3
MEAN_MOTION_DOT = .27817E-3
MEAN_MOTION_DDOT = 0

CCSDS_OMM_VERS = 2.0
CREATION_DATE  = 
ORIGINATOR     = 

OBJECT_NAME    = ISS (NAUKA)
OBJECT_ID      = 2021-066A
CENTER_NAME    = EARTH
REF_FRAME      = TEME
TIME_SYSTEM    = UTC
MEAN_ELEMENT_THEORY = SGP/SGP4

EPOCH          = 2026-02-21T05:58:25.424832
MEAN_MOTION    = 15.48178501
ECCENTRICITY   = .00085229
INCLINATION    = 51.6322
RA_OF_ASC_NODE = 153.6219
ARG_OF_PERICENTER = 117.8535
MEAN_ANOMALY   = 242.3318

EPHEMERIS_TYPE = 0
CLASSIFICATION_TYPE = U
NORAD_CAT_ID   = 49044
ELEMENT_SET_NO = 999
REV_AT_EPOCH   = 23044
BSTAR          = .21781902E-3
MEAN_MOTION_DOT = .11241E-3
MEAN_MOTION_DDOT = 0

CCSDS_OMM_VERS = 2.0
CREATION_DATE  = 
ORIGINATOR     = 

OBJECT_NAME    = FREGAT DEB
OBJECT_ID      = 2011-037PF
CENTER_NAME    = EARTH
REF_FRAME      = TEME
TIME_SYSTEM    = UTC
MEAN_ELEMENT_THEORY = SGP/SGP4

EPOCH          = 2026-02-21T03:41:26.307744
MEAN_MOTION    = 12.39099986
ECCENTRICITY   = .09455196
INCLINATION    = 51.6521
RA_OF_ASC_NODE = 350.3004
ARG_OF_PERICENTER = 21.4099
MEAN_ANOMALY   = 342.3711

EPHEMERIS_TYPE = 0
CLASSIFICATION_TYPE = U
NORAD_CAT_ID   = 49271
ELEMENT_SET_NO = 999
REV_AT_EPOCH   = 21064
BSTAR          = .48385544E-1
MEAN_MOTION_DOT = .31271E-3
MEAN_MOTION_DDOT = 0

CCSDS_OMM_VERS = 2.0
CREATION_DATE  = 
ORIGINATOR     = 

OBJECT_NAME    = CSS (WENTIAN)
OBJECT_ID      = 2022-085A
CENTER_NAME    = EARTH
REF_FRAME      = TEME
TIME_SYSTEM    = UTC
MEAN_ELEMENT_THEORY = SGP/SGP4

EPOCH          = 2026-02-21T03:18:05.378400
MEAN_MOTION    = 15.59957331
ECCENTRICITY   = .00048286
INCLINATION    = 41.4672
RA_OF_ASC_NODE = 308.8199
ARG_OF_PERICENTER = 160.2979
MEAN_ANOMALY   = 199.8047

EPHEMERIS_TYPE = 0
CLASSIFICATION_TYPE = U
NORAD_CAT_ID   = 53239
ELEMENT_SET_NO = 999
REV_AT_EPOCH   = 17384
BSTAR          = .29956101E-3
MEAN_MOTION_DOT = .24626E-3
MEAN_MOTION_DDOT = 0

CCSDS_OMM_VERS = 2.0
CREATION_DATE  = 
ORIGINATOR     = 

OBJECT_NAME    = CSS (MENGTIAN)
OBJECT_ID      = 2022-143A
CENTER_NAME    = EARTH
REF_FRAME      = TEME
TIME_SYSTEM    = UTC
MEAN_ELEMENT_THEORY = SGP/SGP4

EPOCH          = 2026-02-21T03:18:05.378400
MEAN_MOTION    = 15.59957331
ECCENTRICITY   = .00048286
INCLINATION    = 41.4672
RA_OF_ASC_NODE = 308.8199
ARG_OF_PERICENTER = 160.2979
MEAN_ANOMALY   = 199.8047

EPHEMERIS_TYPE = 0
CLASSIFICATION_TYPE = U
NORAD_CAT_ID   = 54216
ELEMENT_SET_NO = 999
REV_AT_EPOCH   = 15864
BSTAR          = .29956101E-3
MEAN_MOTION_DOT = .24626E-3
MEAN_MOTION_DDOT = 0

CCSDS_OMM_VERS = 2.0
CREATION_DATE  = 
ORIGINATOR     = 

OBJECT_NAME    = PROGRESS-MS 31
OBJECT_ID      = 2025-146A
CENTER_NAME    = EARTH
REF_FRAME      = TEME
TIME_SYSTEM    = UTC
MEAN_ELEMENT_THEORY = SGP/SGP4

EPOCH          = 2026-02-21T05:58:25.424832
MEAN_MOTION    = 15.48178501
ECCENTRICITY   = .00085229
INCLINATION    = 51.6322
RA_OF_ASC_NODE = 153.6219
ARG_OF_PERICENTER = 117.8535
MEAN_ANOMALY   = 242.3318

EPHEMERIS_TYPE = 0
CLASSIFICATION_TYPE = U
NORAD_CAT_ID   = 64751
ELEMENT_SET_NO = 999
REV_AT_EPOCH   = 675
BSTAR          = .21781902E-3
MEAN_MOTION_DOT = .11241E-3
MEAN_MOTION_DDOT = 0

CCSDS_OMM_VERS = 2.0
CREATION_DATE  = 
ORIGINATOR     = 

OBJECT_NAME    = TIANZHOU-9
OBJECT_ID      = 2025-149A
CENTER_NAME    = EARTH
REF_FRAME      = TEME
TIME_SYSTEM    = UTC
MEAN_ELEMENT_THEORY = SGP/SGP4

EPOCH          = 2026-02-21T03:18:05.378400
MEAN_MOTION    = 15.59957331
ECCENTRICITY   = .00048286
INCLINATION    = 41.4672
RA_OF_ASC_NODE = 308.8199
ARG_OF_PERICENTER = 160.2979
MEAN_ANOMALY   = 199.8047

EPHEMERIS_TYPE = 0
CLASSIFICATION_TYPE = U
NORAD_CAT_ID   = 64786
ELEMENT_SET_NO = 999
REV_AT_EPOCH   = 25530
BSTAR          = .29956101E-3
MEAN_MOTION_DOT = .24626E-3
MEAN_MOTION_DDOT = 0

CCSDS_OMM_VERS = 2.0
CREATION_DATE  = 
ORIGINATOR     = 

OBJECT_NAME    = DRAGON CRS-33
OBJECT_ID      = 2025-186A
CENTER_NAME    = EARTH
REF_FRAME      = TEME
TIME_SYSTEM    = UTC
MEAN_ELEMENT_THEORY = SGP/SGP4

EPOCH          = 2026-02-21T05:58:25.424832
MEAN_MOTION    = 15.48178501
ECCENTRICITY   = .00085229
INCLINATION    = 51.6322
RA_OF_ASC_NODE = 153.6219
ARG_OF_PERICENTER = 117.8535
MEAN_ANOMALY   = 242.3318

EPHEMERIS_TYPE = 0
CLASSIFICATION_TYPE = U
NORAD_CAT_ID   = 65304
ELEMENT_SET_NO = 999
REV_AT_EPOCH   = 11
BSTAR          = .21781902E-3
MEAN_MOTION_DOT = .11241E-3
MEAN_MOTION_DDOT = 0

CCSDS_OMM_VERS = 2.0
CREATION_DATE  = 
ORIGINATOR     = 

OBJECT_NAME    = PROGRESS-MS 32
OBJECT_ID      = 2025-204A
CENTER_NAME    = EARTH
REF_FRAME      = TEME
TIME_SYSTEM    = UTC
MEAN_ELEMENT_THEORY = SGP/SGP4

EPOCH          = 2026-02-21T05:58:25.424832
MEAN_MOTION    = 15.48178501
ECCENTRICITY   = .00085229
INCLINATION    = 51.6322
RA_OF_ASC_NODE = 153.6219
ARG_OF_PERICENTER = 117.8535
MEAN_ANOMALY   = 242.3318

EPHEMERIS_TYPE = 0
CLASSIFICATION_TYPE = U
NORAD_CAT_ID   = 65586
ELEMENT_SET_NO = 999
REV_AT_EPOCH   = 27
BSTAR          = .21781902E-3
MEAN_MOTION_DOT = .11241E-3
MEAN_MOTION_DDOT = 0

CCSDS_OMM_VERS = 2.0
CREATION_DATE  = 
ORIGINATOR     = 

OBJECT_NAME    = CYGNUS NG-23
OBJECT_ID      = 2025-208A
CENTER_NAME    = EARTH
REF_FRAME      = TEME
TIME_SYSTEM    = UTC
MEAN_ELEMENT_THEORY = SGP/SGP4

EPOCH          = 2026-02-21T05:58:25.424832
MEAN_MOTION    = 15.48178501
ECCENTRICITY   = .00085229
INCLINATION    = 51.6322
RA_OF_ASC_NODE = 153.6219
ARG_OF_PERICENTER = 117.8535
MEAN_ANOMALY   = 242.3318

EPHEMERIS_TYPE = 0
CLASSIFICATION_TYPE = U
NORAD_CAT_ID   = 65616
ELEMENT_SET_NO = 999
REV_AT_EPOCH   = 22
BSTAR          = .21781902E-3
MEAN_MOTION_DOT = .11241E-3
MEAN_MOTION_DDOT = 0

CCSDS_OMM_VERS = 2.0
CREATION_DATE  = 
ORIGINATOR     = 

OBJECT_NAME    = ISS OBJECT XK
OBJECT_ID      = 1998-067XK
CENTER_NAME    = EARTH
REF_FRAME      = TEME
TIME_SYSTEM    = UTC
MEAN_ELEMENT_THEORY = SGP/SGP4

EPOCH          = 2026-02-21T11:48:45.069120
MEAN_MOTION    = 15.92962022
ECCENTRICITY   = .0007153
INCLINATION    = 51.6202
RA_OF_ASC_NODE = 132.6495
ARG_OF_PERICENTER = 1.5922
MEAN_ANOMALY   = 358.5106

EPHEMERIS_TYPE = 0
CLASSIFICATION_TYPE = U
NORAD_CAT_ID   = 65731
ELEMENT_SET_NO = 999
REV_AT_EPOCH   = 2430
BSTAR          = .11634E-2
MEAN_MOTION_DOT = .414167E-2
MEAN_MOTION_DDOT = .77642E-4

