ISS (ZARYA)             
1 25544U 98067A   26052.44255340  .00010789  00000+0  20939-3 0  9992
2 25544  51.6322 152.6650 0008525 118.7039 241.4807 15.48182148553815
CSS (TIANHE)            
1 48274U 21035A   26052.39364336  .00027817  00000+0  33751-3 0  9994
2 48274  41.4672 307.2629 0004925 163.0648 197.0356 15.59973204275064
ISS (NAUKA)             
1 49044U 21066A   26052.24890538  .00011241  00000+0  21782-3 0  9991
2 49044  51.6322 153.6219 0008522 117.8535 242.3318 15.48178501230442
FREGAT DEB              
1 49271U 11037PF  26052.15377671  .00031271  00000+0  48386-1 0  9990
2 49271  51.6521 350.3004 0945519  21.4099 342.3711 12.39099986210648
CSS (WENTIAN)           
1 53239U 22085A   26052.13756225  .00024626  00000+0  29956-3 0  9998
2 53239  41.4672 308.8199 0004828 160.2979 199.8047 15.59957331173841
CSS (MENGTIAN)          
1 54216U 22143A   26052.13756225  .00024626  00000+0  29956-3 0  9999
2 54216  41.4672 308.8199 0004828 160.2979 199.8047 15.59957331158648
PROGRESS-MS 31          
1 64751U 25146A   26052.24890538  .00011241  00000+0  21782-3 0  9996
2 64751  51.6322 153.6219 0008522 117.8535 242.3318 15.48178501  6759
TIANZHOU-9              
1 64786U 25149A   26052.13756225  .00024626  00000+0  29956-3 0  9991
2 64786  41.4672 308.8199 0004828 160.2979 199.8047 15.59957331255302
DRAGON CRS-33           
1 65304U 25186A   26052.24890538  .00011241  00000+0  21782-3 0  9995
2 65304  51.6322 153.6219 0008522 117.8535 242.3318 15.48178501   118
PROGRESS-MS 32          
1 65586U 25204A   26052.24890538  .00011241  00000+0  21782-3 0  9998
2 65586  51.6322 153.6219 0008522 117.8535 242.3318 15.48178501   277
CYGNUS NG-23            
1 65616U 25208A   26052.24890538  .00011241  00000+0  21782-3 0  9996
2 65616  51.6322 153.6219 0008522 117.8535 242.3318 15.48178501   226
ISS OBJECT XK           
1 65731U 98067XK  26052.49218830  .00414167  77642-4  11634-2 0  9992
2 65731  51.6202 132.6495 0007153   1.5922 358.5106 15.92962022 24300
